[
    {
        "Altitude(m)": 612513.9098086571,
        "Argument of Periapsis(deg)": 0.0,
        "Eccentricity": 0.0,
        "Inclination(deg)": 60.0,
        "Latitude(deg)": -28.135892720040182,
        "Longitude(deg)": 152.91307041899495,
        "Mean Anomaly(deg)": 212.7273,
        "RAAN(deg)": 55.00000000000001,
        "Satellite Name": "Test1 255",
        "Satellite Number": 255,
        "Semi-Major Axis(m)": 6980739.136638005,
        "Time(s)": 0
    },
    {
        "Altitude(m)": 612708.2776901883,
        "Argument of Periapsis(deg)": 0.00010418945913296404,
        "Eccentricity": 0.0,
        "Inclination(deg)": 60.0,
        "Latitude(deg)": -28.64763241030234,
        "Longitude(deg)": 153.27029959869867,
        "Mean Anomaly(deg)": 213.34740614546183,
        "RAAN(deg)": 54.999579950860266,
        "Satellite Name": "Test1 255",
        "Satellite Number": 255,
        "Semi-Major Axis(m)": 6980739.136638005,
        "Time(s)": 10
    },
    {
        "Altitude(m)": 612903.472257957,
        "Argument of Periapsis(deg)": 0.0002083789182659281,
        "Eccentricity": 0.0,
        "Inclination(deg)": 60.0,
        "Latitude(deg)": -29.15813195757841,
        "Longitude(deg)": 153.63139598900054,
        "Mean Anomaly(deg)": 213.96751229092365,
        "RAAN(deg)": 54.999159901720525,
        "Satellite Name": "Test1 255",
        "Satellite Number": 255,
        "Semi-Major Axis(m)": 6980739.136638005,
        "Time(s)": 20
    },
    {
        "Altitude(m)": 613099.4223018984,
        "Argument of Periapsis(deg)": 0.00031256837739889213,
        "Eccentricity": 0.0,
        "Inclination(deg)": 60.0,
        "Latitude(deg)": -29.667354293170625,
        "Longitude(deg)": 153.99647106032418,
        "Mean Anomaly(deg)": 214.5876184363855,
        "RAAN(deg)": 54.99873985258077,
        "Satellite Name": "Test1 255",
        "Satellite Number": 255,
        "Semi-Major Axis(m)": 6980739.136638005,
        "Time(s)": 30
    },
    {
        "Altitude(m)": 613296.0561300976,
        "Argument of Periapsis(deg)": 0.0004167578365318562,
        "Eccentricity": 0.0,
        "Inclination(deg)": 60.0,
        "Latitude(deg)": -30.175261357624024,
        "Longitude(deg)": 154.36563927052768,
        "Mean Anomaly(deg)": 215.20772458184732,
        "RAAN(deg)": 54.99831980344103,
        "Satellite Name": "Test1 255",
        "Satellite Number": 255,
        "Semi-Major Axis(m)": 6980739.136638005,
        "Time(s)": 40
    },
    {
        "Altitude(m)": 613493.3016004908,
        "Argument of Periapsis(deg)": 0.0005209472956648203,
        "Eccentricity": 0.0,
        "Inclination(deg)": 60.0,
        "Latitude(deg)": -30.681814062216564,
        "Longitude(deg)": 154.73901712259277,
        "Mean Anomaly(deg)": 215.82783072730916,
        "RAAN(deg)": 54.99789975430129,
        "Satellite Name": "Test1 255",
        "Satellite Number": 255,
        "Semi-Major Axis(m)": 6980739.136638005,
        "Time(s)": 50
    },
    {
        "Altitude(m)": 613691.0861527713,
        "Argument of Periapsis(deg)": 0.0006251367547977843,
        "Eccentricity": 0.0,
        "Inclination(deg)": 60.0,
        "Latitude(deg)": -31.18697224911203,
        "Longitude(deg)": 155.11672373530084,
        "Mean Anomaly(deg)": 216.447936872771,
        "RAAN(deg)": 54.99747970516154,
        "Satellite Name": "Test1 255",
        "Satellite Number": 255,
        "Semi-Major Axis(m)": 6980739.136638005,
        "Time(s)": 60
    },
    {
        "Altitude(m)": 613889.3368404596,
        "Argument of Periapsis(deg)": 0.0007293262139307483,
        "Eccentricity": 0.0,
        "Inclination(deg)": 60.0,
        "Latitude(deg)": -31.69069465013288,
        "Longitude(deg)": 155.49888141385813,
        "Mean Anomaly(deg)": 217.0680430182328,
        "RAAN(deg)": 54.9970596560218,
        "Satellite Name": "Test1 255",
        "Satellite Number": 255,
        "Semi-Major Axis(m)": 6980739.136638005,
        "Time(s)": 70
    },
    {
        "Altitude(m)": 614087.9803631497,
        "Argument of Periapsis(deg)": 0.0008335156730637124,
        "Eccentricity": 0.0,
        "Inclination(deg)": 60.0,
        "Latitude(deg)": -32.19293884411304,
        "Longitude(deg)": 155.88561470741053,
        "Mean Anomaly(deg)": 217.6881491636947,
        "RAAN(deg)": 54.996639606882056,
        "Satellite Name": "Test1 255",
        "Satellite Number": 255,
        "Semi-Major Axis(m)": 6980739.136638005,
        "Time(s)": 80
    },
    {
        "Altitude(m)": 614286.9430989026,
        "Argument of Periapsis(deg)": 0.0009377051321966765,
        "Eccentricity": 0.0,
        "Inclination(deg)": 60.0,
        "Latitude(deg)": -32.69366121279631,
        "Longitude(deg)": 156.27705097898198,
        "Mean Anomaly(deg)": 218.30825530915646,
        "RAAN(deg)": 54.996219557742315,
        "Satellite Name": "Test1 255",
        "Satellite Number": 255,
        "Semi-Major Axis(m)": 6980739.136638005,
        "Time(s)": 90
    },
    {
        "Altitude(m)": 614486.1511367499,
        "Argument of Periapsis(deg)": 0.0010418945913296407,
        "Eccentricity": 0.0,
        "Inclination(deg)": 60.0,
        "Latitude(deg)": -33.19281689524168,
        "Longitude(deg)": 156.6733209747289,
        "Mean Anomaly(deg)": 218.9283614546183,
        "RAAN(deg)": 54.99579950860257,
        "Satellite Name": "Test1 255",
        "Satellite Number": 255,
        "Semi-Major Axis(m)": 6980739.136638005,
        "Time(s)": 100
    },
    {
        "Altitude(m)": 614685.5303093324,
        "Argument of Periapsis(deg)": 0.0011460840504626045,
        "Eccentricity": 0.0,
        "Inclination(deg)": 60.0,
        "Latitude(deg)": -33.69035974069585,
        "Longitude(deg)": 157.07455787937246,
        "Mean Anomaly(deg)": 219.54846760008016,
        "RAAN(deg)": 54.99537945946283,
        "Satellite Name": "Test1 255",
        "Satellite Number": 255,
        "Semi-Major Axis(m)": 6980739.136638005,
        "Time(s)": 110
    },
    {
        "Altitude(m)": 614885.0062256315,
        "Argument of Periapsis(deg)": 0.0012502735095955685,
        "Eccentricity": 0.0,
        "Inclination(deg)": 60.0,
        "Latitude(deg)": -34.186242259906315,
        "Longitude(deg)": 157.48089788326084,
        "Mean Anomaly(deg)": 220.168573745542,
        "RAAN(deg)": 54.99495941032309,
        "Satellite Name": "Test1 255",
        "Satellite Number": 255,
        "Semi-Major Axis(m)": 6980739.136638005,
        "Time(s)": 120
    },
    {
        "Altitude(m)": 615084.5043037827,
        "Argument of Periapsis(deg)": 0.0013544629687285324,
        "Eccentricity": 0.0,
        "Inclination(deg)": 60.0,
        "Latitude(deg)": -34.68041557483751,
        "Longitude(deg)": 157.89248074785934,
        "Mean Anomaly(deg)": 220.78867989100377,
        "RAAN(deg)": 54.99453936118335,
        "Satellite Name": "Test1 255",
        "Satellite Number": 255,
        "Semi-Major Axis(m)": 6980739.136638005,
        "Time(s)": 130
    },
    {
        "Altitude(m)": 615283.949803952,
        "Argument of Periapsis(deg)": 0.0014586524278614966,
        "Eccentricity": 0.0,
        "Inclination(deg)": 60.0,
        "Latitude(deg)": -35.172829366760965,
        "Longitude(deg)": 158.3094488564339,
        "Mean Anomaly(deg)": 221.4087860364657,
        "RAAN(deg)": 54.99411931204361,
        "Satellite Name": "Test1 255",
        "Satellite Number": 255,
        "Semi-Major Axis(m)": 6980739.136638005,
        "Time(s)": 140
    },
    {
        "Altitude(m)": 615483.2678612948,
        "Argument of Periapsis(deg)": 0.0015628418869944607,
        "Eccentricity": 0.0,
        "Inclination(deg)": 60.0,
        "Latitude(deg)": -35.66343182269585,
        "Longitude(deg)": 158.7319477752677,
        "Mean Anomaly(deg)": 222.02889218192746,
        "RAAN(deg)": 54.99369926290386,
        "Satellite Name": "Test1 255",
        "Satellite Number": 255,
        "Semi-Major Axis(m)": 6980739.136638005,
        "Time(s)": 150
    },
    {
        "Altitude(m)": 615682.3835188891,
        "Argument of Periapsis(deg)": 0.0016670313461274247,
        "Eccentricity": 0.0,
        "Inclination(deg)": 60.0,
        "Latitude(deg)": -36.15216958017696,
        "Longitude(deg)": 159.16012681209506,
        "Mean Anomaly(deg)": 222.6489983273893,
        "RAAN(deg)": 54.99327921376412,
        "Satellite Name": "Test1 255",
        "Satellite Number": 255,
        "Semi-Major Axis(m)": 6980739.136638005,
        "Time(s)": 160
    },
    {
        "Altitude(m)": 615881.2217607691,
        "Argument of Periapsis(deg)": 0.0017712208052603888,
        "Eccentricity": 0.0,
        "Inclination(deg)": 60.0,
        "Latitude(deg)": -36.63898767032715,
        "Longitude(deg)": 159.59413805838685,
        "Mean Anomaly(deg)": 223.26910447285115,
        "RAAN(deg)": 54.99285916462438,
        "Satellite Name": "Test1 255",
        "Satellite Number": 255,
        "Semi-Major Axis(m)": 6980739.136638005,
        "Time(s)": 170
    },
    {
        "Altitude(m)": 616079.7075449114,
        "Argument of Periapsis(deg)": 0.001875410264393353,
        "Eccentricity": 0.0,
        "Inclination(deg)": 60.0,
        "Latitude(deg)": -37.123829459227856,
        "Longitude(deg)": 160.0341369406921,
        "Mean Anomaly(deg)": 223.88921061831294,
        "RAAN(deg)": 54.992439115484636,
        "Satellite Name": "Test1 255",
        "Satellite Number": 255,
        "Semi-Major Axis(m)": 6980739.136638005,
        "Time(s)": 180
    },
    {
        "Altitude(m)": 616277.7658362178,
        "Argument of Periapsis(deg)": 0.0019795997235263173,
        "Eccentricity": 0.0,
        "Inclination(deg)": 60.0,
        "Latitude(deg)": -37.606636587577036,
        "Longitude(deg)": 160.4802827675694,
        "Mean Anomaly(deg)": 224.50931676377476,
        "RAAN(deg)": 54.992019066344895,
        "Satellite Name": "Test1 255",
        "Satellite Number": 255,
        "Semi-Major Axis(m)": 6980739.136638005,
        "Time(s)": 190
    }
]